0 TITAN 3C TRANSTAGE DEB
1 03454U 65082PP  13283.98370569  .00002236  00000-0  28006-3 0  5528
2 03454 032.2663 139.5664 0025992 057.3771 082.5255 14.80478326554836
0 TITAN 3C TRANSTAGE DEB
1 03454U 65082PP  13286.73704427  .00002350  00000-0  29453-3 0  5533
2 03454 032.2668 122.8303 0026024 083.2650 356.6841 14.80488380555240
0 TITAN 3C TRANSTAGE DEB
1 03454U 65082PP  13289.56246881  .00002764  00000-0  34711-3 0  5545
2 03454 032.2673 105.6561 0026111 109.6363 295.3474 14.80506251555667
0 TITAN 3C TRANSTAGE DEB
1 03454U 65082PP  13291.58923362  .00003158  00000-0  39707-3 0  5555
2 03454 032.2673 093.3383 0026094 128.4344 297.6275 14.80515139555962
0 TITAN 3C TRANSTAGE DEB
1 03454U 65082PP  13293.76094815  .00003649  00000-0  45947-3 0  5568
2 03454 032.2678 080.1370 0026178 148.5729 352.5593 14.80527314556288
0 TITAN 3C TRANSTAGE DEB
1 03454U 65082PP  13295.78508700  .00003842  00000-0  48386-3 0  5571
2 03454 032.2680 067.8329 0026298 167.3821 340.9790 14.80539682556586
